start=new Date('2022-11-18T00:00:00.000Z').valueOf();
sats=[{"MEAN_MOTION_DDOT":"0.0000000000000","INCLINATION":"53.2157","MEAN_ELEMENT_THEORY":"SGP4","RA_OF_ASC_NODE":"322.4837","PERIAPSIS":"347.264","RCS_SIZE":"LARGE","MEAN_MOTION_DOT":"0.00033410","COUNTRY_CODE":"US","SEMIMAJOR_AXIS":"6727.963","DECAY_DATE":null,"LAUNCH_DATE":"2022-09-19","CENTER_NAME":"EARTH","TIME_SYSTEM":"UTC","APOAPSIS":"352.392","GP_ID":"218099215","OBJECT_TYPE":"PAYLOAD","REF_FRAME":"TEME","EPOCH":"2022-11-17T22:00:00.999936","FILE":"3661914","MEAN_ANOMALY":"133.7612","ECCENTRICITY":"0.00038110","TLE_LINE1":"1 53841U 22114Z   22321.91667824  .00033410  00000-0  24170-3 0  9992","ELEMENT_SET_NO":"999","CLASSIFICATION_TYPE":"U","EPHEMERIS_TYPE":"0","REV_AT_EPOCH":"130","TLE_LINE2":"2 53841  53.2157 322.4837 0003811   3.4646 133.7612 15.73176312  1304","PERIOD":"91.535","OBJECT_ID":"2022-114Z","ARG_OF_PERICENTER":"3.4646","OBJECT_NAME":"STARLINK-4750","SITE":"AFETR","BSTAR":"0.00024170000000","MEAN_MOTION":"15.73176312","NORAD_CAT_ID":"53841"},{"DECAY_DATE":null,"LAUNCH_DATE":"2022-09-19","CENTER_NAME":"EARTH","TIME_SYSTEM":"UTC","COUNTRY_CODE":"US","SEMIMAJOR_AXIS":"6727.847","MEAN_MOTION_DOT":"-0.00012537","RCS_SIZE":"LARGE","PERIAPSIS":"347.014","RA_OF_ASC_NODE":"322.4778","MEAN_ELEMENT_THEORY":"SGP4","INCLINATION":"53.2154","MEAN_MOTION_DDOT":"0.0000000000000","EPHEMERIS_TYPE":"0","TLE_LINE1":"1 53842U 22114AA  22321.91667824 -.00012537  00000-0 -84907-4 0  9997","CLASSIFICATION_TYPE":"U","ELEMENT_SET_NO":"999","MEAN_ANOMALY":"137.9129","ECCENTRICITY":"0.00040100","FILE":"3661914","EPOCH":"2022-11-17T22:00:00.999936","REF_FRAME":"TEME","OBJECT_TYPE":"PAYLOAD","GP_ID":"218099049","APOAPSIS":"352.410","REV_AT_EPOCH":"130","TLE_LINE2":"2 53842  53.2154 322.4778 0004010   1.6637 137.9129 15.73216829  1305","NORAD_CAT_ID":"53842","MEAN_MOTION":"15.73216829","BSTAR":"-0.00008490700000","SITE":"AFETR","OBJECT_NAME":"STARLINK-4754","ARG_OF_PERICENTER":"1.6637","OBJECT_ID":"2022-114AA","PERIOD":"91.532"},{"BSTAR":"0.00008991100000","NORAD_CAT_ID":"53843","MEAN_MOTION":"15.73197856","PERIOD":"91.533","SITE":"AFETR","OBJECT_NAME":"STARLINK-4769","ARG_OF_PERICENTER":"2.7078","OBJECT_ID":"2022-114AB","TLE_LINE2":"2 53843  53.2154 322.4795 0003585   2.7078 135.0862 15.73197856  1303","REV_AT_EPOCH":"130","EPHEMERIS_TYPE":"0","CLASSIFICATION_TYPE":"U","TLE_LINE1":"1 53843U 22114AB  22321.91667824  .00012015  00000-0  89911-4 0  9997","ELEMENT_SET_NO":"999","MEAN_ANOMALY":"135.0862","ECCENTRICITY":"0.00035850","REF_FRAME":"TEME","OBJECT_TYPE":"PAYLOAD","APOAPSIS":"352.178","GP_ID":"218098217","FILE":"3661914","EPOCH":"2022-11-17T22:00:00.999936","RCS_SIZE":"LARGE","PERIAPSIS":"347.354","DECAY_DATE":null,"CENTER_NAME":"EARTH","LAUNCH_DATE":"2022-09-19","TIME_SYSTEM":"UTC","SEMIMAJOR_AXIS":"6727.901","COUNTRY_CODE":"US","MEAN_MOTION_DOT":"0.00012015","INCLINATION":"53.2154","MEAN_MOTION_DDOT":"0.0000000000000","RA_OF_ASC_NODE":"322.4795","MEAN_ELEMENT_THEORY":"SGP4"},{"RA_OF_ASC_NODE":"322.4769","MEAN_ELEMENT_THEORY":"SGP4","MEAN_MOTION_DDOT":"0.0000000000000","INCLINATION":"53.2153","DECAY_DATE":null,"LAUNCH_DATE":"2022-09-19","CENTER_NAME":"EARTH","TIME_SYSTEM":"UTC","MEAN_MOTION_DOT":"0.00036379","SEMIMAJOR_AXIS":"6727.855","COUNTRY_CODE":"US","RCS_SIZE":"LARGE","PERIAPSIS":"347.085","FILE":"3661914","EPOCH":"2022-11-17T22:00:00.999936","REF_FRAME":"TEME","GP_ID":"218098383","APOAPSIS":"352.355","OBJECT_TYPE":"PAYLOAD","CLASSIFICATION_TYPE":"U","TLE_LINE1":"1 53844U 22114AC  22321.91667824  .00036379  00000-0  26227-3 0  9997","ELEMENT_SET_NO":"999","EPHEMERIS_TYPE":"0","MEAN_ANOMALY":"137.9460","ECCENTRICITY":"0.00039170","REV_AT_EPOCH":"130","TLE_LINE2":"2 53844  53.2153 322.4769 0003917   2.8024 137.9460 15.73214071  1309","OBJECT_NAME":"STARLINK-4745","SITE":"AFETR","OBJECT_ID":"2022-114AC","ARG_OF_PERICENTER":"2.8024","PERIOD":"91.532","NORAD_CAT_ID":"53844","MEAN_MOTION":"15.73214071","BSTAR":"0.00026227000000"},{"EPOCH":"2022-11-17T22:00:00.999936","FILE":"3661914","OBJECT_TYPE":"PAYLOAD","APOAPSIS":"351.322","GP_ID":"218098892","REF_FRAME":"TEME","MEAN_ANOMALY":"155.5799","ECCENTRICITY":"0.00039370","EPHEMERIS_TYPE":"0","ELEMENT_SET_NO":"999","TLE_LINE1":"1 53845U 22114AD  22321.91667824  .00091297  00000-0  63720-3 0  9997","CLASSIFICATION_TYPE":"U","MEAN_ELEMENT_THEORY":"SGP4","RA_OF_ASC_NODE":"322.4540","INCLINATION":"53.2173","MEAN_MOTION_DDOT":"0.0000000000000","COUNTRY_CODE":"US","SEMIMAJOR_AXIS":"6726.809","MEAN_MOTION_DOT":"0.00091297","DECAY_DATE":null,"LAUNCH_DATE":"2022-09-19","CENTER_NAME":"EARTH","TIME_SYSTEM":"UTC","PERIAPSIS":"346.025","RCS_SIZE":"LARGE","ARG_OF_PERICENTER":"357.9446","OBJECT_ID":"2022-114AD","SITE":"AFETR","OBJECT_NAME":"STARLINK-4753","PERIOD":"91.511","MEAN_MOTION":"15.73581172","NORAD_CAT_ID":"53845","BSTAR":"0.00063720000000","TLE_LINE2":"2 53845  53.2173 322.4540 0003937 357.9446 155.5799 15.73581172  1303","REV_AT_EPOCH":"130"},{"BSTAR":"0.00003156100000","NORAD_CAT_ID":"53846","MEAN_MOTION":"15.73229750","PERIOD":"91.531","OBJECT_NAME":"STARLINK-4746","SITE":"AFETR","OBJECT_ID":"2022-114AE","ARG_OF_PERICENTER":"4.2984","TLE_LINE2":"2 53846  53.2145 322.4748 0003972   4.2984 137.6746 15.73229750  1305","REV_AT_EPOCH":"130","CLASSIFICATION_TYPE":"U","TLE_LINE1":"1 53846U 22114AE  22321.91667824  .00003814  00000-0  31561-4 0  9995","ELEMENT_SET_NO":"999","EPHEMERIS_TYPE":"0","MEAN_ANOMALY":"137.6746","ECCENTRICITY":"0.00039720","REF_FRAME":"TEME","GP_ID":"218099374","APOAPSIS":"352.348","OBJECT_TYPE":"PAYLOAD","FILE":"3661914","EPOCH":"2022-11-17T22:00:00.999936","RCS_SIZE":"LARGE","PERIAPSIS":"347.003","DECAY_DATE":null,"LAUNCH_DATE":"2022-09-19","TIME_SYSTEM":"UTC","CENTER_NAME":"EARTH","MEAN_MOTION_DOT":"0.00003814","COUNTRY_CODE":"US","SEMIMAJOR_AXIS":"6727.810","MEAN_MOTION_DDOT":"0.0000000000000","INCLINATION":"53.2145","RA_OF_ASC_NODE":"322.4748","MEAN_ELEMENT_THEORY":"SGP4"},{"RA_OF_ASC_NODE":"322.4766","MEAN_ELEMENT_THEORY":"SGP4","MEAN_MOTION_DDOT":"0.0000000000000","INCLINATION":"53.2159","DECAY_DATE":null,"LAUNCH_DATE":"2022-09-19","TIME_SYSTEM":"UTC","CENTER_NAME":"EARTH","MEAN_MOTION_DOT":"-0.00017936","SEMIMAJOR_AXIS":"6727.794","COUNTRY_CODE":"US","RCS_SIZE":"LARGE","PERIAPSIS":"347.041","FILE":"3661914","EPOCH":"2022-11-17T22:00:00.999936","REF_FRAME":"TEME","GP_ID":"218098559","APOAPSIS":"352.277","OBJECT_TYPE":"PAYLOAD","TLE_LINE1":"1 53847U 22114AF  22321.91667824 -.00017936  00000-0 -12337-3 0  9997","CLASSIFICATION_TYPE":"U","ELEMENT_SET_NO":"999","EPHEMERIS_TYPE":"0","MEAN_ANOMALY":"141.2090","ECCENTRICITY":"0.00038910","TLE_LINE2":"2 53847  53.2159 322.4766 0003891 358.9632 141.2090 15.73235457  1304","REV_AT_EPOCH":"130","OBJECT_NAME":"STARLINK-4777","SITE":"AFETR","OBJECT_ID":"2022-114AF","ARG_OF_PERICENTER":"358.9632","PERIOD":"91.531","NORAD_CAT_ID":"53847","MEAN_MOTION":"15.73235457","BSTAR":"-0.00012337000000"},{"TLE_LINE1":"1 53848U 22114AG  22321.91667824  .00051215  00000-0  36750-3 0  9999","CLASSIFICATION_TYPE":"U","ELEMENT_SET_NO":"999","EPHEMERIS_TYPE":"0","ECCENTRICITY":"0.00038020","MEAN_ANOMALY":"139.8139","REF_FRAME":"TEME","GP_ID":"218098726","APOAPSIS":"352.408","OBJECT_TYPE":"PAYLOAD","FILE":"3661914","EPOCH":"2022-11-17T22:00:00.999936","RCS_SIZE":"LARGE","PERIAPSIS":"347.292","DECAY_DATE":null,"LAUNCH_DATE":"2022-09-19","TIME_SYSTEM":"UTC","CENTER_NAME":"EARTH","MEAN_MOTION_DOT":"0.00051215","COUNTRY_CODE":"US","SEMIMAJOR_AXIS":"6727.985","MEAN_MOTION_DDOT":"0.0000000000000","INCLINATION":"53.2155","RA_OF_ASC_NODE":"322.4710","MEAN_ELEMENT_THEORY":"SGP4","BSTAR":"0.00036750000000","NORAD_CAT_ID":"53848","MEAN_MOTION":"15.73168418","PERIOD":"91.535","OBJECT_NAME":"STARLINK-4780","SITE":"AFETR","OBJECT_ID":"2022-114AG","ARG_OF_PERICENTER":"3.4030","REV_AT_EPOCH":"130","TLE_LINE2":"2 53848  53.2155 322.4710 0003802   3.4030 139.8139 15.73168418  1305"},{"TLE_LINE2":"2 53849  53.2146 322.4758 0003794   2.3702 138.9727 15.73112513  1300","REV_AT_EPOCH":"130","BSTAR":"0.00058190000000","NORAD_CAT_ID":"53849","MEAN_MOTION":"15.73112513","PERIOD":"91.538","SITE":"AFETR","OBJECT_NAME":"STARLINK-4770","ARG_OF_PERICENTER":"2.3702","OBJECT_ID":"2022-114AH","RCS_SIZE":"LARGE","PERIAPSIS":"347.457","DECAY_DATE":null,"LAUNCH_DATE":"2022-09-19","CENTER_NAME":"EARTH","TIME_SYSTEM":"UTC","SEMIMAJOR_AXIS":"6728.145","COUNTRY_CODE":"US","MEAN_MOTION_DOT":"0.00081558","INCLINATION":"53.2146","MEAN_MOTION_DDOT":"0.0000000000000","RA_OF_ASC_NODE":"322.4758","MEAN_ELEMENT_THEORY":"SGP4","EPHEMERIS_TYPE":"0","TLE_LINE1":"1 53849U 22114AH  22321.91667824  .00081558  00000-0  58190-3 0  9995","CLASSIFICATION_TYPE":"U","ELEMENT_SET_NO":"999","ECCENTRICITY":"0.00037940","MEAN_ANOMALY":"138.9727","REF_FRAME":"TEME","OBJECT_TYPE":"PAYLOAD","GP_ID":"218099216","APOAPSIS":"352.562","FILE":"3661914","EPOCH":"2022-11-17T22:00:00.999936"},{"TLE_LINE2":"2 53850  53.2149 322.4680 0004136   3.7932 141.1633 15.73210717  1307","REV_AT_EPOCH":"130","PERIOD":"91.533","OBJECT_NAME":"STARLINK-4767","SITE":"AFETR","OBJECT_ID":"2022-114AJ","ARG_OF_PERICENTER":"3.7932","BSTAR":"0.00018836000000","NORAD_CAT_ID":"53850","MEAN_MOTION":"15.73210717","MEAN_MOTION_DDOT":"0.0000000000000","INCLINATION":"53.2149","RA_OF_ASC_NODE":"322.4680","MEAN_ELEMENT_THEORY":"SGP4","RCS_SIZE":"LARGE","PERIAPSIS":"346.947","DECAY_DATE":null,"TIME_SYSTEM":"UTC","LAUNCH_DATE":"2022-09-19","CENTER_NAME":"EARTH","MEAN_MOTION_DOT":"0.00025916","COUNTRY_CODE":"US","SEMIMAJOR_AXIS":"6727.865","REF_FRAME":"TEME","GP_ID":"218099050","APOAPSIS":"352.512","OBJECT_TYPE":"PAYLOAD","FILE":"3661914","EPOCH":"2022-11-17T22:00:00.999936","TLE_LINE1":"1 53850U 22114AJ  22321.91667824  .00025916  00000-0  18836-3 0  9996","CLASSIFICATION_TYPE":"U","ELEMENT_SET_NO":"999","EPHEMERIS_TYPE":"0","MEAN_ANOMALY":"141.1633","ECCENTRICITY":"0.00041360"}];
